[{"OBJECT_NAME":"STARLINK-32833","OBJECT_ID":"2025-022V","EPOCH":"2026-03-09T10:39:13.528512","MEAN_MOTION":15.30166727,"ECCENTRICITY":0.00013201,"INCLINATION":53.158,"RA_OF_ASC_NODE":130.6762,"ARG_OF_PERICENTER":92.843,"MEAN_ANOMALY":267.2722,"EPHEMERIS_TYPE":0,"CLASSIFICATION_TYPE":"U","NORAD_CAT_ID":62873,"ELEMENT_SET_NO":999,"REV_AT_EPOCH":6186,"BSTAR":0.0010283482,"MEAN_MOTION_DOT":0.0003019,"MEAN_MOTION_DDOT":0},{"OBJECT_NAME":"GEOSCAN 1 (RS92S1)","OBJECT_ID":"2025-155E","EPOCH":"2026-03-09T22:44:05.846496","MEAN_MOTION":15.28410635,"ECCENTRICITY":0.00087099,"INCLINATION":97.4463,"RA_OF_ASC_NODE":37.403,"ARG_OF_PERICENTER":153.6429,"MEAN_ANOMALY":206.5255,"EPHEMERIS_TYPE":0,"CLASSIFICATION_TYPE":"U","NORAD_CAT_ID":64880,"ELEMENT_SET_NO":999,"REV_AT_EPOCH":6560,"BSTAR":0.00054367431,"MEAN_MOTION_DOT":0.00014993,"MEAN_MOTION_DDOT":0}]
